STARLINK-36561          
1 67537U 26014F   26035.50002314  .00037097  00000+0  19374-3 0  9994
2 67537  97.2788 278.7158 0001464  96.1153 257.1411 15.80797983  3358
STARLINK-36397          
1 67538U 26014G   26035.50002314 -.01984268  00000+0 -11749-1 0  9995
2 67538  97.2784 278.7174 0001538  41.2890 316.8257 15.81144806  3356
STARLINK-36573          
1 67539U 26014H   26035.50002314  .00012192  00000+0  64269-4 0  9999
2 67539  97.2784 278.7202 0001322  93.4520 270.8431 15.80826789  3358
STARLINK-36585          
1 67540U 26014J   26035.50002314 -.00032220  00000+0 -16779-3 0  9999
2 67540  97.2781 278.7221 0001431  93.0085 276.6213 15.80853921  3351
STARLINK-36579          
1 67541U 26014K   26035.50002314 -.00019880  00000+0 -10308-3 0  9999
2 67541  97.2796 278.7259 0001441 104.6146 272.2451 15.80857424  3355
STARLINK-35934          
1 67542U 26014L   26035.50002314  .00099711  00000+0  51653-3 0  9997
2 67542  97.2783 278.7290 0001661  80.0060 304.9858 15.80766317  3346
STARLINK-36581          
1 67543U 26014M   26035.50002314  .00077721  00000+0  40344-3 0  9990
2 67543  97.2783 278.7316 0001691  70.2027 321.5568 15.80785489  3358
STARLINK-36565          
1 67544U 26014N   26035.50002314  .00101416  00000+0  52464-3 0  9996
2 67544  97.2775 278.7331 0000743 109.2795 288.4576 15.80792423  3355
STARLINK-36583          
1 67545U 26014P   26035.50002314  .00071389  00000+0  37111-3 0  9994
2 67545  97.2775 278.7356 0001095  77.4496 326.4128 15.80773769  3356
STARLINK-36580          
1 67546U 26014Q   26035.50002314  .00099632  00000+0  51614-3 0  9990
2 67546  97.2772 278.7387 0001547  81.6735 329.9804 15.80765878  3354
STARLINK-36584          
1 67547U 26014R   26035.50002314  .00055330  00000+0  28825-3 0  9996
2 67547  97.2770 278.7405 0001018  82.5897 334.5592 15.80779465  3359
STARLINK-36586          
1 67548U 26014S   26035.50002314  .00056278  00000+0  29309-3 0  9997
2 67548  97.2780 278.7451 0001485  85.7263 339.1988 15.80782937  3350
