CCSDS_OMM_VERS = 2.0
CREATION_DATE  = 
ORIGINATOR     = 

OBJECT_NAME    = STARLINK-36561
OBJECT_ID      = 2026-014F
CENTER_NAME    = EARTH
REF_FRAME      = TEME
TIME_SYSTEM    = UTC
MEAN_ELEMENT_THEORY = SGP/SGP4

EPOCH          = 2026-02-04T12:00:01.999296
MEAN_MOTION    = 15.80797983
ECCENTRICITY   = .0001464
INCLINATION    = 97.2788
RA_OF_ASC_NODE = 278.7158
ARG_OF_PERICENTER = 96.1153
MEAN_ANOMALY   = 257.1411

EPHEMERIS_TYPE = 0
CLASSIFICATION_TYPE = U
NORAD_CAT_ID   = 67537
ELEMENT_SET_NO = 999
REV_AT_EPOCH   = 335
BSTAR          = .19374E-3
MEAN_MOTION_DOT = .37097E-3
MEAN_MOTION_DDOT = 0

CCSDS_OMM_VERS = 2.0
CREATION_DATE  = 
ORIGINATOR     = 

OBJECT_NAME    = STARLINK-36397
OBJECT_ID      = 2026-014G
CENTER_NAME    = EARTH
REF_FRAME      = TEME
TIME_SYSTEM    = UTC
MEAN_ELEMENT_THEORY = SGP/SGP4

EPOCH          = 2026-02-04T12:00:01.999296
MEAN_MOTION    = 15.81144806
ECCENTRICITY   = .0001538
INCLINATION    = 97.2784
RA_OF_ASC_NODE = 278.7174
ARG_OF_PERICENTER = 41.2890
MEAN_ANOMALY   = 316.8257

EPHEMERIS_TYPE = 0
CLASSIFICATION_TYPE = U
NORAD_CAT_ID   = 67538
ELEMENT_SET_NO = 999
REV_AT_EPOCH   = 335
BSTAR          = -.11749E-1
MEAN_MOTION_DOT = -.1984268E-1
MEAN_MOTION_DDOT = 0

CCSDS_OMM_VERS = 2.0
CREATION_DATE  = 
ORIGINATOR     = 

OBJECT_NAME    = STARLINK-36573
OBJECT_ID      = 2026-014H
CENTER_NAME    = EARTH
REF_FRAME      = TEME
TIME_SYSTEM    = UTC
MEAN_ELEMENT_THEORY = SGP/SGP4

EPOCH          = 2026-02-04T12:00:01.999296
MEAN_MOTION    = 15.80826789
ECCENTRICITY   = .0001322
INCLINATION    = 97.2784
RA_OF_ASC_NODE = 278.7202
ARG_OF_PERICENTER = 93.4520
MEAN_ANOMALY   = 270.8431

EPHEMERIS_TYPE = 0
CLASSIFICATION_TYPE = U
NORAD_CAT_ID   = 67539
ELEMENT_SET_NO = 999
REV_AT_EPOCH   = 335
BSTAR          = .64269E-4
MEAN_MOTION_DOT = .12192E-3
MEAN_MOTION_DDOT = 0

CCSDS_OMM_VERS = 2.0
CREATION_DATE  = 
ORIGINATOR     = 

OBJECT_NAME    = STARLINK-36585
OBJECT_ID      = 2026-014J
CENTER_NAME    = EARTH
REF_FRAME      = TEME
TIME_SYSTEM    = UTC
MEAN_ELEMENT_THEORY = SGP/SGP4

EPOCH          = 2026-02-04T12:00:01.999296
MEAN_MOTION    = 15.80853921
ECCENTRICITY   = .0001431
INCLINATION    = 97.2781
RA_OF_ASC_NODE = 278.7221
ARG_OF_PERICENTER = 93.0085
MEAN_ANOMALY   = 276.6213

EPHEMERIS_TYPE = 0
CLASSIFICATION_TYPE = U
NORAD_CAT_ID   = 67540
ELEMENT_SET_NO = 999
REV_AT_EPOCH   = 335
BSTAR          = -.16779E-3
MEAN_MOTION_DOT = -.3222E-3
MEAN_MOTION_DDOT = 0

CCSDS_OMM_VERS = 2.0
CREATION_DATE  = 
ORIGINATOR     = 

OBJECT_NAME    = STARLINK-36579
OBJECT_ID      = 2026-014K
CENTER_NAME    = EARTH
REF_FRAME      = TEME
TIME_SYSTEM    = UTC
MEAN_ELEMENT_THEORY = SGP/SGP4

EPOCH          = 2026-02-04T12:00:01.999296
MEAN_MOTION    = 15.80857424
ECCENTRICITY   = .0001441
INCLINATION    = 97.2796
RA_OF_ASC_NODE = 278.7259
ARG_OF_PERICENTER = 104.6146
MEAN_ANOMALY   = 272.2451

EPHEMERIS_TYPE = 0
CLASSIFICATION_TYPE = U
NORAD_CAT_ID   = 67541
ELEMENT_SET_NO = 999
REV_AT_EPOCH   = 335
BSTAR          = -.10308E-3
MEAN_MOTION_DOT = -.1988E-3
MEAN_MOTION_DDOT = 0

CCSDS_OMM_VERS = 2.0
CREATION_DATE  = 
ORIGINATOR     = 

OBJECT_NAME    = STARLINK-35934
OBJECT_ID      = 2026-014L
CENTER_NAME    = EARTH
REF_FRAME      = TEME
TIME_SYSTEM    = UTC
MEAN_ELEMENT_THEORY = SGP/SGP4

EPOCH          = 2026-02-04T12:00:01.999296
MEAN_MOTION    = 15.80766317
ECCENTRICITY   = .0001661
INCLINATION    = 97.2783
RA_OF_ASC_NODE = 278.7290
ARG_OF_PERICENTER = 80.0060
MEAN_ANOMALY   = 304.9858

EPHEMERIS_TYPE = 0
CLASSIFICATION_TYPE = U
NORAD_CAT_ID   = 67542
ELEMENT_SET_NO = 999
REV_AT_EPOCH   = 334
BSTAR          = .51653E-3
MEAN_MOTION_DOT = .99711E-3
MEAN_MOTION_DDOT = 0

CCSDS_OMM_VERS = 2.0
CREATION_DATE  = 
ORIGINATOR     = 

OBJECT_NAME    = STARLINK-36581
OBJECT_ID      = 2026-014M
CENTER_NAME    = EARTH
REF_FRAME      = TEME
TIME_SYSTEM    = UTC
MEAN_ELEMENT_THEORY = SGP/SGP4

EPOCH          = 2026-02-04T12:00:01.999296
MEAN_MOTION    = 15.80785489
ECCENTRICITY   = .0001691
INCLINATION    = 97.2783
RA_OF_ASC_NODE = 278.7316
ARG_OF_PERICENTER = 70.2027
MEAN_ANOMALY   = 321.5568

EPHEMERIS_TYPE = 0
CLASSIFICATION_TYPE = U
NORAD_CAT_ID   = 67543
ELEMENT_SET_NO = 999
REV_AT_EPOCH   = 335
BSTAR          = .40344E-3
MEAN_MOTION_DOT = .77721E-3
MEAN_MOTION_DDOT = 0

CCSDS_OMM_VERS = 2.0
CREATION_DATE  = 
ORIGINATOR     = 

OBJECT_NAME    = STARLINK-36565
OBJECT_ID      = 2026-014N
CENTER_NAME    = EARTH
REF_FRAME      = TEME
TIME_SYSTEM    = UTC
MEAN_ELEMENT_THEORY = SGP/SGP4

EPOCH          = 2026-02-04T12:00:01.999296
MEAN_MOTION    = 15.80792423
ECCENTRICITY   = .0000743
INCLINATION    = 97.2775
RA_OF_ASC_NODE = 278.7331
ARG_OF_PERICENTER = 109.2795
MEAN_ANOMALY   = 288.4576

EPHEMERIS_TYPE = 0
CLASSIFICATION_TYPE = U
NORAD_CAT_ID   = 67544
ELEMENT_SET_NO = 999
REV_AT_EPOCH   = 335
BSTAR          = .52464E-3
MEAN_MOTION_DOT = .101416E-2
MEAN_MOTION_DDOT = 0

CCSDS_OMM_VERS = 2.0
CREATION_DATE  = 
ORIGINATOR     = 

OBJECT_NAME    = STARLINK-36583
OBJECT_ID      = 2026-014P
CENTER_NAME    = EARTH
REF_FRAME      = TEME
TIME_SYSTEM    = UTC
MEAN_ELEMENT_THEORY = SGP/SGP4

EPOCH          = 2026-02-04T12:00:01.999296
MEAN_MOTION    = 15.80773769
ECCENTRICITY   = .0001095
INCLINATION    = 97.2775
RA_OF_ASC_NODE = 278.7356
ARG_OF_PERICENTER = 77.4496
MEAN_ANOMALY   = 326.4128

EPHEMERIS_TYPE = 0
CLASSIFICATION_TYPE = U
NORAD_CAT_ID   = 67545
ELEMENT_SET_NO = 999
REV_AT_EPOCH   = 335
BSTAR          = .37111E-3
MEAN_MOTION_DOT = .71389E-3
MEAN_MOTION_DDOT = 0

CCSDS_OMM_VERS = 2.0
CREATION_DATE  = 
ORIGINATOR     = 

OBJECT_NAME    = STARLINK-36580
OBJECT_ID      = 2026-014Q
CENTER_NAME    = EARTH
REF_FRAME      = TEME
TIME_SYSTEM    = UTC
MEAN_ELEMENT_THEORY = SGP/SGP4

EPOCH          = 2026-02-04T12:00:01.999296
MEAN_MOTION    = 15.80765878
ECCENTRICITY   = .0001547
INCLINATION    = 97.2772
RA_OF_ASC_NODE = 278.7387
ARG_OF_PERICENTER = 81.6735
MEAN_ANOMALY   = 329.9804

EPHEMERIS_TYPE = 0
CLASSIFICATION_TYPE = U
NORAD_CAT_ID   = 67546
ELEMENT_SET_NO = 999
REV_AT_EPOCH   = 335
BSTAR          = .51614E-3
MEAN_MOTION_DOT = .99632E-3
MEAN_MOTION_DDOT = 0

CCSDS_OMM_VERS = 2.0
CREATION_DATE  = 
ORIGINATOR     = 

OBJECT_NAME    = STARLINK-36584
OBJECT_ID      = 2026-014R
CENTER_NAME    = EARTH
REF_FRAME      = TEME
TIME_SYSTEM    = UTC
MEAN_ELEMENT_THEORY = SGP/SGP4

EPOCH          = 2026-02-04T12:00:01.999296
MEAN_MOTION    = 15.80779465
ECCENTRICITY   = .0001018
INCLINATION    = 97.2770
RA_OF_ASC_NODE = 278.7405
ARG_OF_PERICENTER = 82.5897
MEAN_ANOMALY   = 334.5592

EPHEMERIS_TYPE = 0
CLASSIFICATION_TYPE = U
NORAD_CAT_ID   = 67547
ELEMENT_SET_NO = 999
REV_AT_EPOCH   = 335
BSTAR          = .28825E-3
MEAN_MOTION_DOT = .5533E-3
MEAN_MOTION_DDOT = 0

CCSDS_OMM_VERS = 2.0
CREATION_DATE  = 
ORIGINATOR     = 

OBJECT_NAME    = STARLINK-36586
OBJECT_ID      = 2026-014S
CENTER_NAME    = EARTH
REF_FRAME      = TEME
TIME_SYSTEM    = UTC
MEAN_ELEMENT_THEORY = SGP/SGP4

EPOCH          = 2026-02-04T12:00:01.999296
MEAN_MOTION    = 15.80782937
ECCENTRICITY   = .0001485
INCLINATION    = 97.2780
RA_OF_ASC_NODE = 278.7451
ARG_OF_PERICENTER = 85.7263
MEAN_ANOMALY   = 339.1988

EPHEMERIS_TYPE = 0
CLASSIFICATION_TYPE = U
NORAD_CAT_ID   = 67548
ELEMENT_SET_NO = 999
REV_AT_EPOCH   = 335
BSTAR          = .29309E-3
MEAN_MOTION_DOT = .56278E-3
MEAN_MOTION_DDOT = 0

